[{"OBJECT_NAME":"STARLINK-36651","OBJECT_ID":"2026-033V","EPOCH":"2026-03-09T22:24:02.501856","MEAN_MOTION":15.82145228,"ECCENTRICITY":0.00021081,"INCLINATION":42.998,"RA_OF_ASC_NODE":269.838,"ARG_OF_PERICENTER":262.4734,"MEAN_ANOMALY":97.5898,"EPHEMERIS_TYPE":0,"CLASSIFICATION_TYPE":"U","NORAD_CAT_ID":67840,"ELEMENT_SET_NO":999,"REV_AT_EPOCH":466,"BSTAR":0.0017818753,"MEAN_MOTION_DOT":0.0039466,"MEAN_MOTION_DDOT":0},{"OBJECT_NAME":"COSMOS 2251 DEB","OBJECT_ID":"1993-036AKA","EPOCH":"2026-03-09T09:22:03.575424","MEAN_MOTION":15.68318455,"ECCENTRICITY":0.0015577,"INCLINATION":74.005,"RA_OF_ASC_NODE":188.7318,"ARG_OF_PERICENTER":331.7378,"MEAN_ANOMALY":28.2997,"EPHEMERIS_TYPE":0,"CLASSIFICATION_TYPE":"U","NORAD_CAT_ID":35432,"ELEMENT_SET_NO":999,"REV_AT_EPOCH":88835,"BSTAR":0.011294709,"MEAN_MOTION_DOT":0.01441733,"MEAN_MOTION_DDOT":0}]
